<?xml version="1.0" encoding="UTF-8"?>
<kml xmlns="http://www.opengis.net/kml/2.2">
<Document>
<name>Mapa Aeroports</name>
<Style id="schengenStyle"><IconStyle><color>ff00ff00</color><scale>1.2</scale><Icon><href>http://maps.google.com/mapfiles/kml/shapes/placemark_circle.png</href></Icon></IconStyle></Style>
<Style id="noschengenStyle"><IconStyle><color>ff0000ff</color><scale>1.2</scale><Icon><href>http://maps.google.com/mapfiles/kml/shapes/placemark_circle.png</href></Icon></IconStyle></Style>
<Placemark>
<name>BIKF</name>
<styleUrl>#schengenStyle</styleUrl>
<Point>
<coordinates>-22.605556,63.985000,0</coordinates>
</Point>
</Placemark>
<Placemark>
<name>CYUL</name>
<styleUrl>#noschengenStyle</styleUrl>
<Point>
<coordinates>-73.741389,45.468056,0</coordinates>
</Point>
</Placemark>
<Placemark>
<name>CYYZ</name>
<styleUrl>#noschengenStyle</styleUrl>
<Point>
<coordinates>-79.630556,43.677222,0</coordinates>
</Point>
</Placemark>
<Placemark>
<name>DAAG</name>
<styleUrl>#noschengenStyle</styleUrl>
<Point>
<coordinates>3.214444,36.693889,0</coordinates>
</Point>
</Placemark>
<Placemark>
<name>DTTA</name>
<styleUrl>#noschengenStyle</styleUrl>
<Point>
<coordinates>10.226944,36.851111,0</coordinates>
</Point>
</Placemark>
<Placemark>
<name>EBAW</name>
<styleUrl>#schengenStyle</styleUrl>
<Point>
<coordinates>4.460278,51.189444,0</coordinates>
</Point>
</Placemark>
<Placemark>
<name>EBBR</name>
<styleUrl>#schengenStyle</styleUrl>
<Point>
<coordinates>4.484444,50.901389,0</coordinates>
</Point>
</Placemark>
<Placemark>
<name>EBLG</name>
<styleUrl>#schengenStyle</styleUrl>
<Point>
<coordinates>5.442778,50.636389,0</coordinates>
</Point>
</Placemark>
<Placemark>
<name>EBOS</name>
<styleUrl>#schengenStyle</styleUrl>
<Point>
<coordinates>2.862222,51.198889,0</coordinates>
</Point>
</Placemark>
<Placemark>
<name>EDDB</name>
<styleUrl>#schengenStyle</styleUrl>
<Point>
<coordinates>13.500556,52.362222,0</coordinates>
</Point>
</Placemark>
<Placemark>
<name>EDDF</name>
<styleUrl>#schengenStyle</styleUrl>
<Point>
<coordinates>8.570556,50.033333,0</coordinates>
</Point>
</Placemark>
<Placemark>
<name>EDDH</name>
<styleUrl>#schengenStyle</styleUrl>
<Point>
<coordinates>9.988333,53.630278,0</coordinates>
</Point>
</Placemark>
<Placemark>
<name>EDDK</name>
<styleUrl>#schengenStyle</styleUrl>
<Point>
<coordinates>7.142778,50.865833,0</coordinates>
</Point>
</Placemark>
<Placemark>
<name>EDDL</name>
<styleUrl>#schengenStyle</styleUrl>
<Point>
<coordinates>6.757222,51.280833,0</coordinates>
</Point>
</Placemark>
<Placemark>
<name>EDDM</name>
<styleUrl>#schengenStyle</styleUrl>
<Point>
<coordinates>11.786111,48.353889,0</coordinates>
</Point>
</Placemark>
<Placemark>
<name>EDDN</name>
<styleUrl>#schengenStyle</styleUrl>
<Point>
<coordinates>11.078056,49.498611,0</coordinates>
</Point>
</Placemark>
<Placemark>
<name>EDDP</name>
<styleUrl>#schengenStyle</styleUrl>
<Point>
<coordinates>12.236389,51.423889,0</coordinates>
</Point>
</Placemark>
<Placemark>
<name>EDDS</name>
<styleUrl>#schengenStyle</styleUrl>
<Point>
<coordinates>9.221944,48.690000,0</coordinates>
</Point>
</Placemark>
<Placemark>
<name>EDDT</name>
<styleUrl>#schengenStyle</styleUrl>
<Point>
<coordinates>13.287778,52.559722,0</coordinates>
</Point>
</Placemark>
<Placemark>
<name>EDDV</name>
<styleUrl>#schengenStyle</styleUrl>
<Point>
<coordinates>9.683611,52.460278,0</coordinates>
</Point>
</Placemark>
<Placemark>
<name>EETN</name>
<styleUrl>#schengenStyle</styleUrl>
<Point>
<coordinates>24.832500,59.413333,0</coordinates>
</Point>
</Placemark>
<Placemark>
<name>EFHK</name>
<styleUrl>#schengenStyle</styleUrl>
<Point>
<coordinates>24.963333,60.317222,0</coordinates>
</Point>
</Placemark>
<Placemark>
<name>EGAA</name>
<styleUrl>#noschengenStyle</styleUrl>
<Point>
<coordinates>-6.215833,54.657500,0</coordinates>
</Point>
</Placemark>
<Placemark>
<name>EGBB</name>
<styleUrl>#noschengenStyle</styleUrl>
<Point>
<coordinates>-1.748056,52.453889,0</coordinates>
</Point>
</Placemark>
<Placemark>
<name>EGCC</name>
<styleUrl>#noschengenStyle</styleUrl>
<Point>
<coordinates>-2.275000,53.353889,0</coordinates>
</Point>
</Placemark>
<Placemark>
<name>EGFF</name>
<styleUrl>#noschengenStyle</styleUrl>
<Point>
<coordinates>-3.343333,51.396667,0</coordinates>
</Point>
</Placemark>
<Placemark>
<name>EGGD</name>
<styleUrl>#noschengenStyle</styleUrl>
<Point>
<coordinates>-2.719167,51.382778,0</coordinates>
</Point>
</Placemark>
<Placemark>
<name>EGGP</name>
<styleUrl>#noschengenStyle</styleUrl>
<Point>
<coordinates>-2.849722,53.333611,0</coordinates>
</Point>
</Placemark>
<Placemark>
<name>EGGW</name>
<styleUrl>#noschengenStyle</styleUrl>
<Point>
<coordinates>-0.368333,51.874722,0</coordinates>
</Point>
</Placemark>
<Placemark>
<name>EGHI</name>
<styleUrl>#noschengenStyle</styleUrl>
<Point>
<coordinates>-1.356667,50.950278,0</coordinates>
</Point>
</Placemark>
<Placemark>
<name>EGKK</name>
<styleUrl>#noschengenStyle</styleUrl>
<Point>
<coordinates>-0.190278,51.148056,0</coordinates>
</Point>
</Placemark>
<Placemark>
<name>EGLL</name>
<styleUrl>#noschengenStyle</styleUrl>
<Point>
<coordinates>-0.461389,51.477500,0</coordinates>
</Point>
</Placemark>
<Placemark>
<name>EGMC</name>
<styleUrl>#noschengenStyle</styleUrl>
<Point>
<coordinates>0.693333,51.570278,0</coordinates>
</Point>
</Placemark>
<Placemark>
<name>EGNM</name>
<styleUrl>#noschengenStyle</styleUrl>
<Point>
<coordinates>-1.660833,53.866111,0</coordinates>
</Point>
</Placemark>
<Placemark>
<name>EGNT</name>
<styleUrl>#noschengenStyle</styleUrl>
<Point>
<coordinates>-1.689722,55.038056,0</coordinates>
</Point>
</Placemark>
<Placemark>
<name>EGNX</name>
<styleUrl>#noschengenStyle</styleUrl>
<Point>
<coordinates>-1.327778,52.831111,0</coordinates>
</Point>
</Placemark>
<Placemark>
<name>EGPH</name>
<styleUrl>#noschengenStyle</styleUrl>
<Point>
<coordinates>-3.372500,55.950000,0</coordinates>
</Point>
</Placemark>
<Placemark>
<name>EGPK</name>
<styleUrl>#noschengenStyle</styleUrl>
<Point>
<coordinates>-4.594444,55.509444,0</coordinates>
</Point>
</Placemark>
<Placemark>
<name>EGSS</name>
<styleUrl>#noschengenStyle</styleUrl>
<Point>
<coordinates>0.235000,51.885000,0</coordinates>
</Point>
</Placemark>
<Placemark>
<name>EHAM</name>
<styleUrl>#schengenStyle</styleUrl>
<Point>
<coordinates>4.764167,52.308056,0</coordinates>
</Point>
</Placemark>
<Placemark>
<name>EHEH</name>
<styleUrl>#schengenStyle</styleUrl>
<Point>
<coordinates>5.374444,51.450000,0</coordinates>
</Point>
</Placemark>
<Placemark>
<name>EHRD</name>
<styleUrl>#schengenStyle</styleUrl>
<Point>
<coordinates>4.437222,51.956944,0</coordinates>
</Point>
</Placemark>
<Placemark>
<name>EIDW</name>
<styleUrl>#noschengenStyle</styleUrl>
<Point>
<coordinates>-6.270000,53.421389,0</coordinates>
</Point>
</Placemark>
<Placemark>
<name>EKBI</name>
<styleUrl>#schengenStyle</styleUrl>
<Point>
<coordinates>9.151667,55.740278,0</coordinates>
</Point>
</Placemark>
<Placemark>
<name>EKCH</name>
<styleUrl>#schengenStyle</styleUrl>
<Point>
<coordinates>12.656111,55.618056,0</coordinates>
</Point>
</Placemark>
<Placemark>
<name>ELLX</name>
<styleUrl>#schengenStyle</styleUrl>
<Point>
<coordinates>6.204444,49.623333,0</coordinates>
</Point>
</Placemark>
<Placemark>
<name>ENBR</name>
<styleUrl>#schengenStyle</styleUrl>
<Point>
<coordinates>5.218056,60.293611,0</coordinates>
</Point>
</Placemark>
<Placemark>
<name>ENGM</name>
<styleUrl>#schengenStyle</styleUrl>
<Point>
<coordinates>11.083889,60.202778,0</coordinates>
</Point>
</Placemark>
<Placemark>
<name>EPKK</name>
<styleUrl>#schengenStyle</styleUrl>
<Point>
<coordinates>19.784722,50.077778,0</coordinates>
</Point>
</Placemark>
<Placemark>
<name>EPKT</name>
<styleUrl>#schengenStyle</styleUrl>
<Point>
<coordinates>19.080000,50.474167,0</coordinates>
</Point>
</Placemark>
<Placemark>
<name>EPWA</name>
<styleUrl>#schengenStyle</styleUrl>
<Point>
<coordinates>20.967222,52.165833,0</coordinates>
</Point>
</Placemark>
<Placemark>
<name>ESGG</name>
<styleUrl>#schengenStyle</styleUrl>
<Point>
<coordinates>12.291111,57.660000,0</coordinates>
</Point>
</Placemark>
<Placemark>
<name>ESKN</name>
<styleUrl>#schengenStyle</styleUrl>
<Point>
<coordinates>16.903611,58.788611,0</coordinates>
</Point>
</Placemark>
<Placemark>
<name>ESSA</name>
<styleUrl>#schengenStyle</styleUrl>
<Point>
<coordinates>17.918611,59.651944,0</coordinates>
</Point>
</Placemark>
<Placemark>
<name>ETNL</name>
<styleUrl>#noschengenStyle</styleUrl>
<Point>
<coordinates>12.278333,53.919167,0</coordinates>
</Point>
</Placemark>
<Placemark>
<name>EVRA</name>
<styleUrl>#schengenStyle</styleUrl>
<Point>
<coordinates>23.971111,56.923611,0</coordinates>
</Point>
</Placemark>
<Placemark>
<name>EYVI</name>
<styleUrl>#schengenStyle</styleUrl>
<Point>
<coordinates>25.287778,54.636944,0</coordinates>
</Point>
</Placemark>
<Placemark>
<name>GCFV</name>
<styleUrl>#noschengenStyle</styleUrl>
<Point>
<coordinates>-13.863889,28.452778,0</coordinates>
</Point>
</Placemark>
<Placemark>
<name>GCLP</name>
<styleUrl>#noschengenStyle</styleUrl>
<Point>
<coordinates>-15.386667,27.931944,0</coordinates>
</Point>
</Placemark>
<Placemark>
<name>GCRR</name>
<styleUrl>#noschengenStyle</styleUrl>
<Point>
<coordinates>-13.605278,28.945556,0</coordinates>
</Point>
</Placemark>
<Placemark>
<name>GCXO</name>
<styleUrl>#noschengenStyle</styleUrl>
<Point>
<coordinates>-16.341667,28.482778,0</coordinates>
</Point>
</Placemark>
<Placemark>
<name>GMFF</name>
<styleUrl>#noschengenStyle</styleUrl>
<Point>
<coordinates>-4.977778,33.927222,0</coordinates>
</Point>
</Placemark>
<Placemark>
<name>GMMN</name>
<styleUrl>#noschengenStyle</styleUrl>
<Point>
<coordinates>-7.581667,33.364167,0</coordinates>
</Point>
</Placemark>
<Placemark>
<name>GMMX</name>
<styleUrl>#noschengenStyle</styleUrl>
<Point>
<coordinates>-8.040833,31.608611,0</coordinates>
</Point>
</Placemark>
<Placemark>
<name>GMTT</name>
<styleUrl>#noschengenStyle</styleUrl>
<Point>
<coordinates>-5.921111,35.731667,0</coordinates>
</Point>
</Placemark>
<Placemark>
<name>HECA</name>
<styleUrl>#noschengenStyle</styleUrl>
<Point>
<coordinates>31.413889,30.111389,0</coordinates>
</Point>
</Placemark>
<Placemark>
<name>HTDA</name>
<styleUrl>#noschengenStyle</styleUrl>
<Point>
<coordinates>39.203333,-6.875556,0</coordinates>
</Point>
</Placemark>
<Placemark>
<name>KATL</name>
<styleUrl>#noschengenStyle</styleUrl>
<Point>
<coordinates>-84.433333,33.633333,0</coordinates>
</Point>
</Placemark>
<Placemark>
<name>KCLT</name>
<styleUrl>#noschengenStyle</styleUrl>
<Point>
<coordinates>-80.950000,35.216667,0</coordinates>
</Point>
</Placemark>
<Placemark>
<name>KEWR</name>
<styleUrl>#noschengenStyle</styleUrl>
<Point>
<coordinates>-74.168333,40.696667,0</coordinates>
</Point>
</Placemark>
<Placemark>
<name>KIAD</name>
<styleUrl>#noschengenStyle</styleUrl>
<Point>
<coordinates>-77.456667,38.945000,0</coordinates>
</Point>
</Placemark>
<Placemark>
<name>KJFK</name>
<styleUrl>#noschengenStyle</styleUrl>
<Point>
<coordinates>-73.778333,40.640278,0</coordinates>
</Point>
</Placemark>
<Placemark>
<name>KMIA</name>
<styleUrl>#noschengenStyle</styleUrl>
<Point>
<coordinates>-80.283333,25.800000,0</coordinates>
</Point>
</Placemark>
<Placemark>
<name>KPHL</name>
<styleUrl>#noschengenStyle</styleUrl>
<Point>
<coordinates>-75.245000,39.870000,0</coordinates>
</Point>
</Placemark>
<Placemark>
<name>KUGN</name>
<styleUrl>#noschengenStyle</styleUrl>
<Point>
<coordinates>-87.868333,42.421667,0</coordinates>
</Point>
</Placemark>
<Placemark>
<name>LBSF</name>
<styleUrl>#noschengenStyle</styleUrl>
<Point>
<coordinates>23.408333,42.695000,0</coordinates>
</Point>
</Placemark>
<Placemark>
<name>LCLK</name>
<styleUrl>#schengenStyle</styleUrl>
<Point>
<coordinates>33.630278,34.878889,0</coordinates>
</Point>
</Placemark>
<Placemark>
<name>LDDU</name>
<styleUrl>#noschengenStyle</styleUrl>
<Point>
<coordinates>18.268333,42.561389,0</coordinates>
</Point>
</Placemark>
<Placemark>
<name>LDSP</name>
<styleUrl>#noschengenStyle</styleUrl>
<Point>
<coordinates>16.298056,43.538889,0</coordinates>
</Point>
</Placemark>
<Placemark>
<name>LDZA</name>
<styleUrl>#noschengenStyle</styleUrl>
<Point>
<coordinates>16.068889,45.743056,0</coordinates>
</Point>
</Placemark>
<Placemark>
<name>LEAL</name>
<styleUrl>#schengenStyle</styleUrl>
<Point>
<coordinates>-0.558056,38.282222,0</coordinates>
</Point>
</Placemark>
<Placemark>
<name>LEAM</name>
<styleUrl>#schengenStyle</styleUrl>
<Point>
<coordinates>-2.370000,36.843889,0</coordinates>
</Point>
</Placemark>
<Placemark>
<name>LEAS</name>
<styleUrl>#schengenStyle</styleUrl>
<Point>
<coordinates>-6.034722,43.563611,0</coordinates>
</Point>
</Placemark>
<Placemark>
<name>LEBB</name>
<styleUrl>#schengenStyle</styleUrl>
<Point>
<coordinates>-2.910556,43.301111,0</coordinates>
</Point>
</Placemark>
<Placemark>
<name>LEBL</name>
<styleUrl>#schengenStyle</styleUrl>
<Point>
<coordinates>2.078333,41.296944,0</coordinates>
</Point>
</Placemark>
<Placemark>
<name>LEBZ</name>
<styleUrl>#schengenStyle</styleUrl>
<Point>
<coordinates>-6.821389,38.891389,0</coordinates>
</Point>
</Placemark>
<Placemark>
<name>LECO</name>
<styleUrl>#schengenStyle</styleUrl>
<Point>
<coordinates>-8.377222,43.301944,0</coordinates>
</Point>
</Placemark>
<Placemark>
<name>LEGE</name>
<styleUrl>#schengenStyle</styleUrl>
<Point>
<coordinates>2.760556,41.900833,0</coordinates>
</Point>
</Placemark>
<Placemark>
<name>LEGR</name>
<styleUrl>#schengenStyle</styleUrl>
<Point>
<coordinates>-3.777222,37.188611,0</coordinates>
</Point>
</Placemark>
<Placemark>
<name>LEIB</name>
<styleUrl>#schengenStyle</styleUrl>
<Point>
<coordinates>1.373056,38.872778,0</coordinates>
</Point>
</Placemark>
<Placemark>
<name>LEJR</name>
<styleUrl>#schengenStyle</styleUrl>
<Point>
<coordinates>-6.060000,36.744722,0</coordinates>
</Point>
</Placemark>
<Placemark>
<name>LELN</name>
<styleUrl>#schengenStyle</styleUrl>
<Point>
<coordinates>-5.656111,42.588611,0</coordinates>
</Point>
</Placemark>
<Placemark>
<name>LEMD</name>
<styleUrl>#schengenStyle</styleUrl>
<Point>
<coordinates>-3.560833,40.472222,0</coordinates>
</Point>
</Placemark>
<Placemark>
<name>LEMG</name>
<styleUrl>#schengenStyle</styleUrl>
<Point>
<coordinates>-4.499167,36.675000,0</coordinates>
</Point>
</Placemark>
<Placemark>
<name>LEMH</name>
<styleUrl>#schengenStyle</styleUrl>
<Point>
<coordinates>4.218611,39.862500,0</coordinates>
</Point>
</Placemark>
<Placemark>
<name>LEPA</name>
<styleUrl>#schengenStyle</styleUrl>
<Point>
<coordinates>2.738889,39.551667,0</coordinates>
</Point>
</Placemark>
<Placemark>
<name>LESO</name>
<styleUrl>#schengenStyle</styleUrl>
<Point>
<coordinates>-1.790556,43.356389,0</coordinates>
</Point>
</Placemark>
<Placemark>
<name>LEST</name>
<styleUrl>#schengenStyle</styleUrl>
<Point>
<coordinates>-8.415278,42.896389,0</coordinates>
</Point>
</Placemark>
<Placemark>
<name>LEVC</name>
<styleUrl>#schengenStyle</styleUrl>
<Point>
<coordinates>-0.481667,39.489444,0</coordinates>
</Point>
</Placemark>
<Placemark>
<name>LEVD</name>
<styleUrl>#schengenStyle</styleUrl>
<Point>
<coordinates>-4.851944,41.706111,0</coordinates>
</Point>
</Placemark>
<Placemark>
<name>LEVX</name>
<styleUrl>#schengenStyle</styleUrl>
<Point>
<coordinates>-8.627500,42.229167,0</coordinates>
</Point>
</Placemark>
<Placemark>
<name>LEXJ</name>
<styleUrl>#schengenStyle</styleUrl>
<Point>
<coordinates>-3.820000,43.426944,0</coordinates>
</Point>
</Placemark>
<Placemark>
<name>LEZL</name>
<styleUrl>#schengenStyle</styleUrl>
<Point>
<coordinates>-5.898889,37.418056,0</coordinates>
</Point>
</Placemark>
<Placemark>
<name>LFBD</name>
<styleUrl>#schengenStyle</styleUrl>
<Point>
<coordinates>-0.715278,44.828611,0</coordinates>
</Point>
</Placemark>
<Placemark>
<name>LFBT</name>
<styleUrl>#schengenStyle</styleUrl>
<Point>
<coordinates>-0.002778,43.185556,0</coordinates>
</Point>
</Placemark>
<Placemark>
<name>LFCK</name>
<styleUrl>#schengenStyle</styleUrl>
<Point>
<coordinates>2.290556,43.555000,0</coordinates>
</Point>
</Placemark>
<Placemark>
<name>LFLL</name>
<styleUrl>#schengenStyle</styleUrl>
<Point>
<coordinates>5.081111,45.725556,0</coordinates>
</Point>
</Placemark>
<Placemark>
<name>LFMD</name>
<styleUrl>#schengenStyle</styleUrl>
<Point>
<coordinates>6.954167,43.546389,0</coordinates>
</Point>
</Placemark>
<Placemark>
<name>LFML</name>
<styleUrl>#schengenStyle</styleUrl>
<Point>
<coordinates>5.215000,43.436667,0</coordinates>
</Point>
</Placemark>
<Placemark>
<name>LFMN</name>
<styleUrl>#schengenStyle</styleUrl>
<Point>
<coordinates>7.215000,43.665278,0</coordinates>
</Point>
</Placemark>
<Placemark>
<name>LFOB</name>
<styleUrl>#schengenStyle</styleUrl>
<Point>
<coordinates>2.112778,49.454444,0</coordinates>
</Point>
</Placemark>
<Placemark>
<name>LFPG</name>
<styleUrl>#schengenStyle</styleUrl>
<Point>
<coordinates>2.547778,49.009722,0</coordinates>
</Point>
</Placemark>
<Placemark>
<name>LFPO</name>
<styleUrl>#schengenStyle</styleUrl>
<Point>
<coordinates>2.379444,48.723333,0</coordinates>
</Point>
</Placemark>
<Placemark>
<name>LFQQ</name>
<styleUrl>#schengenStyle</styleUrl>
<Point>
<coordinates>3.086944,50.563333,0</coordinates>
</Point>
</Placemark>
<Placemark>
<name>LFRN</name>
<styleUrl>#schengenStyle</styleUrl>
<Point>
<coordinates>-1.732222,48.071944,0</coordinates>
</Point>
</Placemark>
<Placemark>
<name>LFRS</name>
<styleUrl>#schengenStyle</styleUrl>
<Point>
<coordinates>-1.607778,47.156944,0</coordinates>
</Point>
</Placemark>
<Placemark>
<name>LFSB</name>
<styleUrl>#schengenStyle</styleUrl>
<Point>
<coordinates>7.529167,47.590000,0</coordinates>
</Point>
</Placemark>
<Placemark>
<name>LFST</name>
<styleUrl>#schengenStyle</styleUrl>
<Point>
<coordinates>7.634444,48.541944,0</coordinates>
</Point>
</Placemark>
<Placemark>
<name>LGAV</name>
<styleUrl>#schengenStyle</styleUrl>
<Point>
<coordinates>23.944444,37.936667,0</coordinates>
</Point>
</Placemark>
<Placemark>
<name>LGIR</name>
<styleUrl>#schengenStyle</styleUrl>
<Point>
<coordinates>25.180278,35.339722,0</coordinates>
</Point>
</Placemark>
<Placemark>
<name>LGKR</name>
<styleUrl>#schengenStyle</styleUrl>
<Point>
<coordinates>19.912222,39.601944,0</coordinates>
</Point>
</Placemark>
<Placemark>
<name>LGMK</name>
<styleUrl>#schengenStyle</styleUrl>
<Point>
<coordinates>25.347222,37.437222,0</coordinates>
</Point>
</Placemark>
<Placemark>
<name>LGSR</name>
<styleUrl>#schengenStyle</styleUrl>
<Point>
<coordinates>25.479167,36.399167,0</coordinates>
</Point>
</Placemark>
<Placemark>
<name>LGTS</name>
<styleUrl>#schengenStyle</styleUrl>
<Point>
<coordinates>22.970833,40.519722,0</coordinates>
</Point>
</Placemark>
<Placemark>
<name>LHBP</name>
<styleUrl>#schengenStyle</styleUrl>
<Point>
<coordinates>19.261944,47.439444,0</coordinates>
</Point>
</Placemark>
<Placemark>
<name>LIBD</name>
<styleUrl>#schengenStyle</styleUrl>
<Point>
<coordinates>16.765000,41.138056,0</coordinates>
</Point>
</Placemark>
<Placemark>
<name>LICJ</name>
<styleUrl>#schengenStyle</styleUrl>
<Point>
<coordinates>13.099444,38.181944,0</coordinates>
</Point>
</Placemark>
<Placemark>
<name>LIEE</name>
<styleUrl>#schengenStyle</styleUrl>
<Point>
<coordinates>9.056111,39.247222,0</coordinates>
</Point>
</Placemark>
<Placemark>
<name>LIEO</name>
<styleUrl>#schengenStyle</styleUrl>
<Point>
<coordinates>9.517778,40.898611,0</coordinates>
</Point>
</Placemark>
<Placemark>
<name>LIMC</name>
<styleUrl>#schengenStyle</styleUrl>
<Point>
<coordinates>8.723056,45.630000,0</coordinates>
</Point>
</Placemark>
<Placemark>
<name>LIME</name>
<styleUrl>#schengenStyle</styleUrl>
<Point>
<coordinates>9.700278,45.668889,0</coordinates>
</Point>
</Placemark>
<Placemark>
<name>LIMF</name>
<styleUrl>#schengenStyle</styleUrl>
<Point>
<coordinates>7.649444,45.202500,0</coordinates>
</Point>
</Placemark>
<Placemark>
<name>LIML</name>
<styleUrl>#schengenStyle</styleUrl>
<Point>
<coordinates>9.278333,45.449444,0</coordinates>
</Point>
</Placemark>
<Placemark>
<name>LIPE</name>
<styleUrl>#schengenStyle</styleUrl>
<Point>
<coordinates>11.296944,44.530833,0</coordinates>
</Point>
</Placemark>
<Placemark>
<name>LIPH</name>
<styleUrl>#schengenStyle</styleUrl>
<Point>
<coordinates>12.197778,45.650833,0</coordinates>
</Point>
</Placemark>
<Placemark>
<name>LIPX</name>
<styleUrl>#schengenStyle</styleUrl>
<Point>
<coordinates>10.887778,45.396389,0</coordinates>
</Point>
</Placemark>
<Placemark>
<name>LIPZ</name>
<styleUrl>#schengenStyle</styleUrl>
<Point>
<coordinates>12.351944,45.505278,0</coordinates>
</Point>
</Placemark>
<Placemark>
<name>LIRF</name>
<styleUrl>#schengenStyle</styleUrl>
<Point>
<coordinates>12.238889,41.800278,0</coordinates>
</Point>
</Placemark>
<Placemark>
<name>LIRN</name>
<styleUrl>#schengenStyle</styleUrl>
<Point>
<coordinates>14.290833,40.884444,0</coordinates>
</Point>
</Placemark>
<Placemark>
<name>LIRP</name>
<styleUrl>#schengenStyle</styleUrl>
<Point>
<coordinates>10.395556,43.682778,0</coordinates>
</Point>
</Placemark>
<Placemark>
<name>LIRQ</name>
<styleUrl>#schengenStyle</styleUrl>
<Point>
<coordinates>11.202778,43.808611,0</coordinates>
</Point>
</Placemark>
<Placemark>
<name>LKPR</name>
<styleUrl>#schengenStyle</styleUrl>
<Point>
<coordinates>14.260000,50.100833,0</coordinates>
</Point>
</Placemark>
<Placemark>
<name>LLBG</name>
<styleUrl>#noschengenStyle</styleUrl>
<Point>
<coordinates>34.885556,32.009444,0</coordinates>
</Point>
</Placemark>
<Placemark>
<name>LMML</name>
<styleUrl>#schengenStyle</styleUrl>
<Point>
<coordinates>14.477500,35.857500,0</coordinates>
</Point>
</Placemark>
<Placemark>
<name>LOWW</name>
<styleUrl>#schengenStyle</styleUrl>
<Point>
<coordinates>16.569722,48.110278,0</coordinates>
</Point>
</Placemark>
<Placemark>
<name>LPPR</name>
<styleUrl>#schengenStyle</styleUrl>
<Point>
<coordinates>-8.678056,41.235556,0</coordinates>
</Point>
</Placemark>
<Placemark>
<name>LPPT</name>
<styleUrl>#schengenStyle</styleUrl>
<Point>
<coordinates>-9.134167,38.774167,0</coordinates>
</Point>
</Placemark>
<Placemark>
<name>LRCL</name>
<styleUrl>#noschengenStyle</styleUrl>
<Point>
<coordinates>23.692222,46.789167,0</coordinates>
</Point>
</Placemark>
<Placemark>
<name>LROP</name>
<styleUrl>#noschengenStyle</styleUrl>
<Point>
<coordinates>26.085000,44.571111,0</coordinates>
</Point>
</Placemark>
<Placemark>
<name>LSGG</name>
<styleUrl>#schengenStyle</styleUrl>
<Point>
<coordinates>6.109444,46.238333,0</coordinates>
</Point>
</Placemark>
<Placemark>
<name>LSZG</name>
<styleUrl>#schengenStyle</styleUrl>
<Point>
<coordinates>7.416389,47.181389,0</coordinates>
</Point>
</Placemark>
<Placemark>
<name>LSZH</name>
<styleUrl>#schengenStyle</styleUrl>
<Point>
<coordinates>8.548056,47.458056,0</coordinates>
</Point>
</Placemark>
<Placemark>
<name>LTBA</name>
<styleUrl>#noschengenStyle</styleUrl>
<Point>
<coordinates>28.814167,40.976111,0</coordinates>
</Point>
</Placemark>
<Placemark>
<name>LTFJ</name>
<styleUrl>#noschengenStyle</styleUrl>
<Point>
<coordinates>29.309167,40.898333,0</coordinates>
</Point>
</Placemark>
<Placemark>
<name>LUKK</name>
<styleUrl>#noschengenStyle</styleUrl>
<Point>
<coordinates>28.930833,46.927778,0</coordinates>
</Point>
</Placemark>
<Placemark>
<name>LWSK</name>
<styleUrl>#noschengenStyle</styleUrl>
<Point>
<coordinates>21.621389,41.961667,0</coordinates>
</Point>
</Placemark>
<Placemark>
<name>LYBE</name>
<styleUrl>#noschengenStyle</styleUrl>
<Point>
<coordinates>20.306944,44.819444,0</coordinates>
</Point>
</Placemark>
<Placemark>
<name>LYTV</name>
<styleUrl>#noschengenStyle</styleUrl>
<Point>
<coordinates>18.723333,42.404722,0</coordinates>
</Point>
</Placemark>
<Placemark>
<name>OLBA</name>
<styleUrl>#noschengenStyle</styleUrl>
<Point>
<coordinates>35.490000,33.819167,0</coordinates>
</Point>
</Placemark>
<Placemark>
<name>OMAA</name>
<styleUrl>#noschengenStyle</styleUrl>
<Point>
<coordinates>54.650000,24.433333,0</coordinates>
</Point>
</Placemark>
<Placemark>
<name>OMDB</name>
<styleUrl>#noschengenStyle</styleUrl>
<Point>
<coordinates>55.360000,25.249167,0</coordinates>
</Point>
</Placemark>
<Placemark>
<name>OTHH</name>
<styleUrl>#noschengenStyle</styleUrl>
<Point>
<coordinates>51.608333,25.274444,0</coordinates>
</Point>
</Placemark>
<Placemark>
<name>SAEZ</name>
<styleUrl>#noschengenStyle</styleUrl>
<Point>
<coordinates>-58.535833,-34.822222,0</coordinates>
</Point>
</Placemark>
<Placemark>
<name>SBGR</name>
<styleUrl>#noschengenStyle</styleUrl>
<Point>
<coordinates>-46.470000,-23.433333,0</coordinates>
</Point>
</Placemark>
<Placemark>
<name>SKBO</name>
<styleUrl>#noschengenStyle</styleUrl>
<Point>
<coordinates>-74.150000,4.700000,0</coordinates>
</Point>
</Placemark>
<Placemark>
<name>UKBB</name>
<styleUrl>#noschengenStyle</styleUrl>
<Point>
<coordinates>30.893333,50.344722,0</coordinates>
</Point>
</Placemark>
<Placemark>
<name>UKKK</name>
<styleUrl>#noschengenStyle</styleUrl>
<Point>
<coordinates>30.451944,50.401944,0</coordinates>
</Point>
</Placemark>
<Placemark>
<name>ULLI</name>
<styleUrl>#noschengenStyle</styleUrl>
<Point>
<coordinates>30.262500,59.800278,0</coordinates>
</Point>
</Placemark>
<Placemark>
<name>URKK</name>
<styleUrl>#noschengenStyle</styleUrl>
<Point>
<coordinates>39.170000,45.034722,0</coordinates>
</Point>
</Placemark>
<Placemark>
<name>UUDD</name>
<styleUrl>#noschengenStyle</styleUrl>
<Point>
<coordinates>37.906389,55.408611,0</coordinates>
</Point>
</Placemark>
<Placemark>
<name>UUEE</name>
<styleUrl>#noschengenStyle</styleUrl>
<Point>
<coordinates>37.413056,55.972500,0</coordinates>
</Point>
</Placemark>
<Placemark>
<name>UWKD</name>
<styleUrl>#noschengenStyle</styleUrl>
<Point>
<coordinates>49.280278,55.606944,0</coordinates>
</Point>
</Placemark>
<Placemark>
<name>WSSS</name>
<styleUrl>#noschengenStyle</styleUrl>
<Point>
<coordinates>103.989167,1.359167,0</coordinates>
</Point>
</Placemark>
<Placemark>
<name>LECD</name>
<styleUrl>#schengenStyle</styleUrl>
<Point>
<coordinates>2.080000,41.290000,0</coordinates>
</Point>
</Placemark>
</Document>
</kml>
